[
    {
        "Altitude(m)": 607897.6321611312,
        "Argument of Periapsis(deg)": 0.0,
        "Eccentricity": 0.0,
        "Inclination(deg)": 60.0,
        "Latitude(deg)": -14.29303333528882,
        "Longitude(deg)": -148.38126664856472,
        "Mean Anomaly(deg)": -16.363600000000037,
        "RAAN(deg)": 320.0,
        "Satellite Name": "Test1 1429",
        "Satellite Number": 1429,
        "Semi-Major Axis(m)": 6980739.136638005,
        "Time(s)": 0
    },
    {
        "Altitude(m)": 607750.8329178593,
        "Argument of Periapsis(deg)": 0.00010418945913296404,
        "Eccentricity": 0.0,
        "Inclination(deg)": 60.0,
        "Latitude(deg)": -13.758875172486812,
        "Longitude(deg)": -148.09419675583342,
        "Mean Anomaly(deg)": -15.743493854538185,
        "RAAN(deg)": 319.9995799508602,
        "Satellite Name": "Test1 1429",
        "Satellite Number": 1429,
        "Semi-Major Axis(m)": 6980739.136638005,
        "Time(s)": 10
    }
]